[
    {
        "Altitude(m)": 611965.1883858504,
        "Argument of Periapsis(deg)": 0.0,
        "Eccentricity": 0.0,
        "Inclination(deg)": 60.0,
        "Latitude(deg)": 59.14017074864882,
        "Longitude(deg)": -16.030358707237156,
        "Mean Anomaly(deg)": 81.8182,
        "RAAN(deg)": 10.0,
        "Satellite Name": "Test1 49",
        "Satellite Number": 49,
        "Semi-Major Axis(m)": 6980739.136638005,
        "Time(s)": 0
    },
    {
        "Altitude(m)": 611995.8145710839,
        "Argument of Periapsis(deg)": 0.00010418945913296404,
        "Eccentricity": 0.0,
        "Inclination(deg)": 60.0,
        "Latitude(deg)": 59.283272826316875,
        "Longitude(deg)": -14.896997194724275,
        "Mean Anomaly(deg)": 82.43830614546184,
        "RAAN(deg)": 9.999579950860259,
        "Satellite Name": "Test1 49",
        "Satellite Number": 49,
        "Semi-Major Axis(m)": 6980739.136638005,
        "Time(s)": 10
    }
]